SL-4 R/B                
1 39679U 14021B   25350.38758051  .00008992  00000+0  21753-3 0  9992
2 39679  51.6086  22.8656 0101480 159.3275 201.1859 15.36757047643450
ALOS-2                  
1 39766U 14029A   25351.00392019  .00000885  00000+0  12538-3 0  9999
2 39766  97.9224  85.7890 0001349  95.6676 264.4689 14.79469754624646
YAOGAN-29               
1 41038U 15069A   25351.00319904 -.00000076  00000+0 -27320-5 0  9992
2 41038  98.0221  14.1890 0000232 203.1546 156.9657 14.82885953543623
ASTRO-H (HITOMI)        
1 41337U 16012A   25349.93055932  .00002446  00000+0  14357-3 0  9995
2 41337  30.9977 176.8014 0009633 211.1588 148.8480 15.09374122539564
HXMT (HUIYAN)           
1 42758U 17034A   25350.80922681  .00003511  00000+0  18812-3 0  9994
2 42758  43.0129 117.0438 0031217  70.0987 290.3220 15.16282117469951
CZ-2C R/B               
1 43521U 18054D   25350.53876570  .00093402  00000+0  59708-3 0  9998
2 43521  35.1311 155.1179 0015101 183.4633 176.5997 15.74898835415659
SAOCOM 1A               
1 43641U 18076A   25350.99255758  .00000018  00000+0  87953-5 0  9990
2 43641  97.8844 175.3521 0001455  79.4924 280.6453 14.82161303389113
H-2A R/B                
1 43682U 18084L   25350.53240389  .00014647  00000+0  39589-3 0  9991
2 43682  98.8770 185.3975 0027117 313.3096  46.5883 15.37508817392985
SAOCOM 1B               
1 46265U 20059A   25350.95628647  .00000851  00000+0  11341-3 0  9997
2 46265  97.8838 174.4169 0001286  85.1416 274.9944 14.82167638286496
CSS (TIANHE)            
1 48274U 21035A   25351.00596246  .00019519  00000+0  24376-3 0  9993
2 48274  41.4682 350.8038 0007784  67.2573 292.9088 15.59356604264694
COSMOS 2550             
1 48865U 21056A   25351.02975065 -.00000098  00000+0  28429-5 0  9992
2 48865  67.1454 290.9581 0008413 269.1860  90.8331 15.33827596250787
CZ-2C R/B               
1 52794U 22058K   25350.48511160  .00018625  00000+0  33532-3 0  9995
2 52794  50.1915  24.4468 0045087 213.9940 145.8137 15.48689388197219
