CCSDS_OMM_VERS = 2.0
CREATION_DATE  = 
ORIGINATOR     = 

OBJECT_NAME    = SL-4 R/B
OBJECT_ID      = 2014-021B
CENTER_NAME    = EARTH
REF_FRAME      = TEME
TIME_SYSTEM    = UTC
MEAN_ELEMENT_THEORY = SGP/SGP4

EPOCH          = 2025-12-16T09:18:06.956064
MEAN_MOTION    = 15.36757047
ECCENTRICITY   = .01014805
INCLINATION    = 51.6086
RA_OF_ASC_NODE = 22.8656
ARG_OF_PERICENTER = 159.3275
MEAN_ANOMALY   = 201.1859

EPHEMERIS_TYPE = 0
CLASSIFICATION_TYPE = U
NORAD_CAT_ID   = 39679
ELEMENT_SET_NO = 999
REV_AT_EPOCH   = 64345
BSTAR          = .2175287E-3
MEAN_MOTION_DOT = .8992E-4
MEAN_MOTION_DDOT = 0

CCSDS_OMM_VERS = 2.0
CREATION_DATE  = 
ORIGINATOR     = 

OBJECT_NAME    = ALOS-2
OBJECT_ID      = 2014-029A
CENTER_NAME    = EARTH
REF_FRAME      = TEME
TIME_SYSTEM    = UTC
MEAN_ELEMENT_THEORY = SGP/SGP4

EPOCH          = 2025-12-17T00:05:38.704416
MEAN_MOTION    = 14.79469754
ECCENTRICITY   = .00013491
INCLINATION    = 97.9224
RA_OF_ASC_NODE = 85.7890
ARG_OF_PERICENTER = 95.6676
MEAN_ANOMALY   = 264.4689

EPHEMERIS_TYPE = 0
CLASSIFICATION_TYPE = U
NORAD_CAT_ID   = 39766
ELEMENT_SET_NO = 999
REV_AT_EPOCH   = 62464
BSTAR          = .12538274E-3
MEAN_MOTION_DOT = .885E-5
MEAN_MOTION_DDOT = 0

CCSDS_OMM_VERS = 2.0
CREATION_DATE  = 
ORIGINATOR     = 

OBJECT_NAME    = YAOGAN-29
OBJECT_ID      = 2015-069A
CENTER_NAME    = EARTH
REF_FRAME      = TEME
TIME_SYSTEM    = UTC
MEAN_ELEMENT_THEORY = SGP/SGP4

EPOCH          = 2025-12-17T00:04:36.397056
MEAN_MOTION    = 14.82885953
ECCENTRICITY   = .00002322
INCLINATION    = 98.0221
RA_OF_ASC_NODE = 14.1890
ARG_OF_PERICENTER = 203.1546
MEAN_ANOMALY   = 156.9657

EPHEMERIS_TYPE = 0
CLASSIFICATION_TYPE = U
NORAD_CAT_ID   = 41038
ELEMENT_SET_NO = 999
REV_AT_EPOCH   = 54362
BSTAR          = -.2731956E-5
MEAN_MOTION_DOT = -.76E-6
MEAN_MOTION_DDOT = 0

CCSDS_OMM_VERS = 2.0
CREATION_DATE  = 
ORIGINATOR     = 

OBJECT_NAME    = ASTRO-H (HITOMI)
OBJECT_ID      = 2016-012A
CENTER_NAME    = EARTH
REF_FRAME      = TEME
TIME_SYSTEM    = UTC
MEAN_ELEMENT_THEORY = SGP/SGP4

EPOCH          = 2025-12-15T22:20:00.325248
MEAN_MOTION    = 15.09374122
ECCENTRICITY   = .00096339
INCLINATION    = 30.9977
RA_OF_ASC_NODE = 176.8014
ARG_OF_PERICENTER = 211.1588
MEAN_ANOMALY   = 148.8480

EPHEMERIS_TYPE = 0
CLASSIFICATION_TYPE = U
NORAD_CAT_ID   = 41337
ELEMENT_SET_NO = 999
REV_AT_EPOCH   = 53956
BSTAR          = .14356688E-3
MEAN_MOTION_DOT = .2446E-4
MEAN_MOTION_DDOT = 0

CCSDS_OMM_VERS = 2.0
CREATION_DATE  = 
ORIGINATOR     = 

OBJECT_NAME    = HXMT (HUIYAN)
OBJECT_ID      = 2017-034A
CENTER_NAME    = EARTH
REF_FRAME      = TEME
TIME_SYSTEM    = UTC
MEAN_ELEMENT_THEORY = SGP/SGP4

EPOCH          = 2025-12-16T19:25:17.196384
MEAN_MOTION    = 15.16282117
ECCENTRICITY   = .0031217
INCLINATION    = 43.0129
RA_OF_ASC_NODE = 117.0438
ARG_OF_PERICENTER = 70.0987
MEAN_ANOMALY   = 290.3220

EPHEMERIS_TYPE = 0
CLASSIFICATION_TYPE = U
NORAD_CAT_ID   = 42758
ELEMENT_SET_NO = 999
REV_AT_EPOCH   = 46995
BSTAR          = .1881174E-3
MEAN_MOTION_DOT = .3511E-4
MEAN_MOTION_DDOT = 0

CCSDS_OMM_VERS = 2.0
CREATION_DATE  = 
ORIGINATOR     = 

OBJECT_NAME    = CZ-2C R/B
OBJECT_ID      = 2018-054D
CENTER_NAME    = EARTH
REF_FRAME      = TEME
TIME_SYSTEM    = UTC
MEAN_ELEMENT_THEORY = SGP/SGP4

EPOCH          = 2025-12-16T12:55:49.356480
MEAN_MOTION    = 15.74898835
ECCENTRICITY   = .00151016
INCLINATION    = 35.1311
RA_OF_ASC_NODE = 155.1179
ARG_OF_PERICENTER = 183.4633
MEAN_ANOMALY   = 176.5997

EPHEMERIS_TYPE = 0
CLASSIFICATION_TYPE = U
NORAD_CAT_ID   = 43521
ELEMENT_SET_NO = 999
REV_AT_EPOCH   = 41565
BSTAR          = .59708379E-3
MEAN_MOTION_DOT = .93402E-3
MEAN_MOTION_DDOT = 0

CCSDS_OMM_VERS = 2.0
CREATION_DATE  = 
ORIGINATOR     = 

OBJECT_NAME    = SAOCOM 1A
OBJECT_ID      = 2018-076A
CENTER_NAME    = EARTH
REF_FRAME      = TEME
TIME_SYSTEM    = UTC
MEAN_ELEMENT_THEORY = SGP/SGP4

EPOCH          = 2025-12-16T23:49:16.974912
MEAN_MOTION    = 14.82161303
ECCENTRICITY   = .00014556
INCLINATION    = 97.8844
RA_OF_ASC_NODE = 175.3521
ARG_OF_PERICENTER = 79.4924
MEAN_ANOMALY   = 280.6453

EPHEMERIS_TYPE = 0
CLASSIFICATION_TYPE = U
NORAD_CAT_ID   = 43641
ELEMENT_SET_NO = 999
REV_AT_EPOCH   = 38911
BSTAR          = .8795332E-5
MEAN_MOTION_DOT = .18E-6
MEAN_MOTION_DDOT = 0

CCSDS_OMM_VERS = 2.0
CREATION_DATE  = 
ORIGINATOR     = 

OBJECT_NAME    = H-2A R/B
OBJECT_ID      = 2018-084L
CENTER_NAME    = EARTH
REF_FRAME      = TEME
TIME_SYSTEM    = UTC
MEAN_ELEMENT_THEORY = SGP/SGP4

EPOCH          = 2025-12-16T12:46:39.696096
MEAN_MOTION    = 15.37508817
ECCENTRICITY   = .00271174
INCLINATION    = 98.8770
RA_OF_ASC_NODE = 185.3975
ARG_OF_PERICENTER = 313.3096
MEAN_ANOMALY   = 46.5883

EPHEMERIS_TYPE = 0
CLASSIFICATION_TYPE = U
NORAD_CAT_ID   = 43682
ELEMENT_SET_NO = 999
REV_AT_EPOCH   = 39298
BSTAR          = .39588655E-3
MEAN_MOTION_DOT = .14647E-3
MEAN_MOTION_DDOT = 0

CCSDS_OMM_VERS = 2.0
CREATION_DATE  = 
ORIGINATOR     = 

OBJECT_NAME    = SAOCOM 1B
OBJECT_ID      = 2020-059A
CENTER_NAME    = EARTH
REF_FRAME      = TEME
TIME_SYSTEM    = UTC
MEAN_ELEMENT_THEORY = SGP/SGP4

EPOCH          = 2025-12-16T22:57:03.151008
MEAN_MOTION    = 14.82167638
ECCENTRICITY   = .00012865
INCLINATION    = 97.8838
RA_OF_ASC_NODE = 174.4169
ARG_OF_PERICENTER = 85.1416
MEAN_ANOMALY   = 274.9944

EPHEMERIS_TYPE = 0
CLASSIFICATION_TYPE = U
NORAD_CAT_ID   = 46265
ELEMENT_SET_NO = 999
REV_AT_EPOCH   = 28649
BSTAR          = .11340664E-3
MEAN_MOTION_DOT = .851E-5
MEAN_MOTION_DDOT = 0

CCSDS_OMM_VERS = 2.0
CREATION_DATE  = 
ORIGINATOR     = 

OBJECT_NAME    = CSS (TIANHE)
OBJECT_ID      = 2021-035A
CENTER_NAME    = EARTH
REF_FRAME      = TEME
TIME_SYSTEM    = UTC
MEAN_ELEMENT_THEORY = SGP/SGP4

EPOCH          = 2025-12-17T00:08:35.156544
MEAN_MOTION    = 15.59356604
ECCENTRICITY   = .00077847
INCLINATION    = 41.4682
RA_OF_ASC_NODE = 350.8038
ARG_OF_PERICENTER = 67.2573
MEAN_ANOMALY   = 292.9088

EPHEMERIS_TYPE = 0
CLASSIFICATION_TYPE = U
NORAD_CAT_ID   = 48274
ELEMENT_SET_NO = 999
REV_AT_EPOCH   = 26469
BSTAR          = .24375831E-3
MEAN_MOTION_DOT = .19519E-3
MEAN_MOTION_DDOT = 0

CCSDS_OMM_VERS = 2.0
CREATION_DATE  = 
ORIGINATOR     = 

OBJECT_NAME    = COSMOS 2550
OBJECT_ID      = 2021-056A
CENTER_NAME    = EARTH
REF_FRAME      = TEME
TIME_SYSTEM    = UTC
MEAN_ELEMENT_THEORY = SGP/SGP4

EPOCH          = 2025-12-17T00:42:50.456160
MEAN_MOTION    = 15.33827596
ECCENTRICITY   = .00084133
INCLINATION    = 67.1454
RA_OF_ASC_NODE = 290.9581
ARG_OF_PERICENTER = 269.1860
MEAN_ANOMALY   = 90.8331

EPHEMERIS_TYPE = 0
CLASSIFICATION_TYPE = U
NORAD_CAT_ID   = 48865
ELEMENT_SET_NO = 999
REV_AT_EPOCH   = 25078
BSTAR          = .2842871E-5
MEAN_MOTION_DOT = -.98E-6
MEAN_MOTION_DDOT = 0

CCSDS_OMM_VERS = 2.0
CREATION_DATE  = 
ORIGINATOR     = 

OBJECT_NAME    = CZ-2C R/B
OBJECT_ID      = 2022-058K
CENTER_NAME    = EARTH
REF_FRAME      = TEME
TIME_SYSTEM    = UTC
MEAN_ELEMENT_THEORY = SGP/SGP4

EPOCH          = 2025-12-16T11:38:33.642240
MEAN_MOTION    = 15.48689388
ECCENTRICITY   = .00450872
INCLINATION    = 50.1915
RA_OF_ASC_NODE = 24.4468
ARG_OF_PERICENTER = 213.9940
MEAN_ANOMALY   = 145.8137

EPHEMERIS_TYPE = 0
CLASSIFICATION_TYPE = U
NORAD_CAT_ID   = 52794
ELEMENT_SET_NO = 999
REV_AT_EPOCH   = 19721
BSTAR          = .33532013E-3
MEAN_MOTION_DOT = .18625E-3
MEAN_MOTION_DDOT = 0

